OSCAR 7 (AO-7)          
1 07530U 74089B   26190.00008538 -.00000039  00000+0  46226-4 0  9991
2 07530 101.9902 203.4739 0012663  89.8010 297.9034 12.53698428363252
PHASE 3B (AO-10)        
1 14129U 83058B   26189.24859908  .00000202  00000+0  00000+0 0  9994
2 14129  25.9305 216.0918 6003826 121.4539 310.7883  2.05869766295926
UOSAT 2 (UO-11)         
1 14781U 84021B   26189.90082573  .00000894  00000+0  96386-4 0  9992
2 14781  97.8071 155.2351 0009147 108.6371 251.5841 14.90838473260364
LUSAT (LO-19)           
1 20442U 90005G   26189.94975956  .00000059  00000+0  37669-4 0  9994
2 20442  98.8846 212.3544 0012306 138.4757 221.7364 14.34129487905513
EYESAT A (AO-27)        
1 22825U 93061C   26189.74614432  .00000048  00000+0  35392-4 0  9992
2 22825  98.6871 257.1508 0009100  43.5405 316.6495 14.30947983710087
ITAMSAT (IO-26)         
1 22826U 93061D   26189.71912196  .00000051  00000+0  36061-4 0  9996
2 22826  98.6818 257.0436 0009334  27.6964 332.4715 14.31375476710398
RADIO ROSTO (RS15)      
1 23439U 94085A   26189.84480814 -.00000037  00000+0  14936-3 0  9996
2 23439  64.8163 268.1909 0156685 359.8783   0.2079 11.27583495298349
JAS-2 (FO-29)           
1 24278U 96046B   26189.89960346 -.00000001  00000+0  33305-4 0  9998
2 24278  98.5224  35.7955 0350607  40.2492 322.4051 13.53275136476102
TECHSAT 1B (GO-32)      
1 25397U 98043D   26189.90993157  .00000035  00000+0  35510-4 0  9994
2 25397  99.0079 183.2175 0002015 124.8391 235.2977 14.24432499454421
ISS (ZARYA)             
1 25544U 98067A   26189.73419088  .00005258  00000+0  10370-3 0  9999
2 25544  51.6304 193.4497 0006669 272.1743  87.8481 15.48947664575097
PCSAT (NO-44)           
1 26931U 01043C   26189.46210552  .00000066  00000+0  55648-4 0  9993
2 26931  67.0487 189.2445 0005977 266.0895  93.9524 14.31963214293495
SAUDISAT 1C (SO-50)     
1 27607U 02058C   26189.93561575  .00000536  00000+0  81079-4 0  9996
2 27607  64.5518  61.6946 0074706 258.4242 100.8471 14.83090746267688
CUTE-1 (CO-55)          
1 27844U 03031E   26189.95445865  .00000197  00000+0  10410-3 0  9999
2 27844  98.6739 198.2397 0010684 118.8005 241.4249 14.24348882194778
CUBESAT XI-IV (CO-57)   
1 27848U 03031J   26189.46187375  .00000184  00000+0  99678-4 0  9998
2 27848  98.6772 197.4488 0010258 137.0463 223.1519 14.23632050194408
MOZHAETS 4 (RS22)       
1 27939U 03042A   26189.95761561  .00000560  00000+0  94433-4 0  9992
2 27939  98.3481  14.9326 0010738 193.4076 308.9000 14.73506975218759
CUBESAT XI-V            
1 28895U 05043F   26189.39764200  .00001087  00000+0  17855-3 0  9995
2 28895  98.3007 345.4679 0015004 135.1728 225.0694 14.72690312104879
CUTE-1.7+APD II (CO-65) 
1 32785U 08021C   26189.92434474  .00002753  00000+0  17517-3 0  9999
2 32785  97.8286 171.7992 0007478 325.1210  34.9527 15.09662179988475
SEEDS II (CO-66)        
1 32791U 08021J   26189.93516932  .00012773  00000+0  39659-3 0  9991
2 32791  97.7528 188.8830 0002351 170.9352 189.1933 15.33517693990629
YUBILEINY (RS30)        
1 32953U 08025A   26189.90801865  .00000075  00000+0  46732-3 0  9996
2 32953  82.5058 341.9274 0018529 263.6088  96.2882 12.43180590822392
KKS-1 (KISEKI)          
1 33499U 09002H   26189.91286104  .00000918  00000+0  11935-3 0  9995
2 33499  98.1179 112.6994 0006931 211.0976 148.9827 14.83179264939412
SWISSCUBE               
1 35932U 09051B   26189.17253487  .00000734  00000+0  15442-3 0  9992
2 35932  98.4017  97.4251 0007478 138.1087 222.0687 14.62521876892227
BEESAT-1                
1 35933U 09051C   26189.67208954  .00000597  00000+0  12966-3 0  9992
2 35933  98.3944  97.5236 0005733 147.2714 212.8843 14.61755226892329
ITUPSAT1                
1 35935U 09051E   26189.54478970  .00000560  00000+0  12544-3 0  9999
2 35935  98.4027  96.5634 0007610 162.4704 197.6760 14.60472478891858
XIWANG-1 (HOPE-1)       
1 36122U 09072B   26189.90362919  .00000309  00000+0  92647-3 0  9999
2 36122 100.4034 143.3897 0007361 179.0293 181.0836 13.16441648795861
O/OREOS (USA 219)       
1 37224U 10062C   26189.89365927  .00001317  00000+0  12981-3 0  9997
2 37224  71.9709  31.1661 0013603  17.4668 342.6967 14.93836067119887
JUGNU                   
1 37839U 11058B   26189.70074720  .00000387  00000+0  62808-4 0  9993
2 37839  19.9588 177.7225 0018372 314.4820 202.9086 14.13782288762079
SRMSAT                  
1 37841U 11058D   26189.35312844  .00000357  00000+0  50022-4 0  9991
2 37841  19.9723 291.3610 0011878  76.6616 325.6645 14.11579975760817
STRAND-1                
1 39090U 13009E   26189.91715955  .00000195  00000+0  79795-4 0  9997
2 39090  98.3931   9.6176 0009049 158.4879 201.6690 14.37176360700187
ZACUBE-1 (TSHEPISOSAT)  
1 39417U 13066B   26189.86955589  .00001537  00000+0  12203-3 0  9997
2 39417  97.8017 152.3146 0043626 175.4835 184.6792 15.01310102683989
GOMX-1                  
1 39430U 13066Q   26189.97513211  .00001010  00000+0  15766-3 0  9999
2 39430  97.6477  29.0627 0128832   8.1911 352.1358 14.69532398673116
